IXPE                    
1 49954U 21121A   24106.91667824  .00005549  00000+0  39776-3 0  9991
2 49954   0.2295 135.2064 0009342  74.4849 233.6509 14.97259222  3549
